[{"OBJECT_NAME":"STARLINK-4634","OBJECT_ID":"2022-125D","EPOCH":"2026-03-09T16:52:36.867072","MEAN_MOTION":15.08827311,"ECCENTRICITY":0.00013577,"INCLINATION":53.2171,"RA_OF_ASC_NODE":224.0959,"ARG_OF_PERICENTER":94.7248,"MEAN_ANOMALY":265.3899,"EPHEMERIS_TYPE":0,"CLASSIFICATION_TYPE":"U","NORAD_CAT_ID":53967,"ELEMENT_SET_NO":999,"REV_AT_EPOCH":18932,"BSTAR":-0.00010288006,"MEAN_MOTION_DOT":-1.924e-5,"MEAN_MOTION_DDOT":0},{"OBJECT_NAME":"CZ-6A R\/B","OBJECT_ID":"2022-031C","EPOCH":"2026-03-09T19:50:55.360896","MEAN_MOTION":15.07476837,"ECCENTRICITY":0.00174842,"INCLINATION":97.8104,"RA_OF_ASC_NODE":273.2347,"ARG_OF_PERICENTER":181.6412,"MEAN_ANOMALY":178.4761,"EPHEMERIS_TYPE":0,"CLASSIFICATION_TYPE":"U","NORAD_CAT_ID":52152,"ELEMENT_SET_NO":999,"REV_AT_EPOCH":21633,"BSTAR":0.00020233161,"MEAN_MOTION_DOT":3.012e-5,"MEAN_MOTION_DDOT":0}]
